{
  "type": "FeatureCollection",
  "features": [
    {
      "type": "Feature",
      "properties": {
        "norad_id": 41026,
        "name": "YAOGAN-28",
        "group": "resource",
        "lat": -16.126652386538932,
        "lon": 134.01268441149642,
        "alt_km": 501.36433589881653,
        "timestamp": "2025-12-20T07:33:50.460904+00:00",
        "meta_object_name": "YAOGAN-28",
        "meta_object_id": "2015-064A",
        "meta_epoch": "2025-12-19T22:10:59.608128",
        "meta_mean_motion": 15.24463093,
        "meta_eccentricity": 0.0012612,
        "meta_inclination": 97.2809,
        "meta_ra_of_asc_node": 131.5143,
        "meta_arg_of_pericenter": 103.1502,
        "meta_mean_anomaly": 257.1144,
        "meta_ephemeris_type": 0,
        "meta_classification_type": "U",
        "meta_norad_cat_id": 41026,
        "meta_element_set_no": 999,
        "meta_rev_at_epoch": 56334,
        "meta_bstar": 0.00023856578,
        "meta_mean_motion_dot": 5.801e-05,
        "meta_mean_motion_ddot": 0,
        "tle_line1": "1 41026U 15064A   25353.92430102  .00005801  00000+0  23857-3 0  9999",
        "tle_line2": "2 41026  97.2809 131.5143 0012612 103.1502 257.1144 15.24463093563344"
      },
      "geometry": {
        "type": "Point",
        "coordinates": [
          134.01268441149642,
          -16.126652386538932
        ]
      }
    },
    {
      "type": "Feature",
      "properties": {
        "norad_id": 41038,
        "name": "YAOGAN-29",
        "group": "resource",
        "lat": 29.55635293114382,
        "lon": 12.924876223277911,
        "alt_km": 619.0562955750365,
        "timestamp": "2025-12-20T07:33:50.460915+00:00",
        "meta_object_name": "YAOGAN-29",
        "meta_object_id": "2015-069A",
        "meta_epoch": "2025-12-19T23:19:56.900640",
        "meta_mean_motion": 14.8289176,
        "meta_eccentricity": 4.817e-05,
        "meta_inclination": 98.0213,
        "meta_ra_of_asc_node": 17.1674,
        "meta_arg_of_pericenter": 177.3167,
        "meta_mean_anomaly": 182.8049,
        "meta_ephemeris_type": 0,
        "meta_classification_type": "U",
        "meta_norad_cat_id": 41038,
        "meta_element_set_no": 999,
        "meta_rev_at_epoch": 54406,
        "meta_bstar": 0.00010904431,
        "meta_mean_motion_dot": 8.3e-06,
        "meta_mean_motion_ddot": 0,
        "tle_line1": "1 41038U 15069A   25353.97218635  .00000830  00000+0  10904-3 0  9993",
        "tle_line2": "2 41038  98.0213  17.1674 0000481 177.3167 182.8049 14.82891760544069"
      },
      "geometry": {
        "type": "Point",
        "coordinates": [
          12.924876223277911,
          29.55635293114382
        ]
      }
    },
    {
      "type": "Feature",
      "properties": {
        "norad_id": 41167,
        "name": "KENT RIDGE 1",
        "group": "resource",
        "lat": 5.421998138249307,
        "lon": 175.72679752405656,
        "alt_km": 501.95808783395296,
        "timestamp": "2025-12-20T07:33:50.460925+00:00",
        "meta_object_name": "KENT RIDGE 1",
        "meta_object_id": "2015-077B",
        "meta_epoch": "2025-12-19T15:44:19.065408",
        "meta_mean_motion": 15.21687,
        "meta_eccentricity": 0.0008521,
        "meta_inclination": 14.9781,
        "meta_ra_of_asc_node": 159.8192,
        "meta_arg_of_pericenter": 228.6,
        "meta_mean_anomaly": 131.3589,
        "meta_ephemeris_type": 0,
        "meta_classification_type": "U",
        "meta_norad_cat_id": 41167,
        "meta_element_set_no": 999,
        "meta_rev_at_epoch": 55369,
        "meta_bstar": 0.00012437,
        "meta_mean_motion_dot": 3.652e-05,
        "meta_mean_motion_ddot": 0,
        "tle_line1": "1 41167U 15077B   25353.65577622  .00003652  00000+0  12437-3 0  9992",
        "tle_line2": "2 41167  14.9781 159.8192 0008521 228.6000 131.3589 15.21687000553698"
      },
      "geometry": {
        "type": "Point",
        "coordinates": [
          175.72679752405656,
          5.421998138249307
        ]
      }
    },
    {
      "type": "Feature",
      "properties": {
        "norad_id": 41194,
        "name": "GAOFEN-4",
        "group": "resource",
        "lat": -0.15615004800375779,
        "lon": -51.657453546292956,
        "alt_km": 35794.25995015612,
        "timestamp": "2025-12-20T07:33:50.460939+00:00",
        "meta_object_name": "GAOFEN-4",
        "meta_object_id": "2015-083A",
        "meta_epoch": "2025-12-19T15:27:26.627616",
        "meta_mean_motion": 1.00273138,
        "meta_eccentricity": 0.0002945,
        "meta_inclination": 0.1878,
        "meta_ra_of_asc_node": 81.7841,
        "meta_arg_of_pericenter": 93.4275,
        "meta_mean_anomaly": 250.8523,
        "meta_ephemeris_type": 0,
        "meta_classification_type": "U",
        "meta_norad_cat_id": 41194,
        "meta_element_set_no": 999,
        "meta_rev_at_epoch": 3672,
        "meta_bstar": 0,
        "meta_mean_motion_dot": -3.11e-06,
        "meta_mean_motion_ddot": 0,
        "tle_line1": "1 41194U 15083A   25353.64405819 -.00000311  00000+0  00000+0 0  9995",
        "tle_line2": "2 41194   0.1878  81.7841 0002945  93.4275 250.8523  1.00273138 36722"
      },
      "geometry": {
        "type": "Point",
        "coordinates": [
          -51.657453546292956,
          -0.15615004800375779
        ]
      }
    },
    {
      "type": "Feature",
      "properties": {
        "norad_id": 41240,
        "name": "JASON-3",
        "group": "resource",
        "lat": 32.849372835884985,
        "lon": -54.78650531082391,
        "alt_km": 1311.352800722314,
        "timestamp": "2025-12-20T07:33:50.460950+00:00",
        "meta_object_name": "JASON-3",
        "meta_object_id": "2016-002A",
        "meta_epoch": "2025-12-19T21:30:01.113408",
        "meta_mean_motion": 12.87626871,
        "meta_eccentricity": 0.00072145,
        "meta_inclination": 66.0398,
        "meta_ra_of_asc_node": 142.7791,
        "meta_arg_of_pericenter": 271.2454,
        "meta_mean_anomaly": 88.7738,
        "meta_ephemeris_type": 0,
        "meta_classification_type": "U",
        "meta_norad_cat_id": 41240,
        "meta_element_set_no": 999,
        "meta_rev_at_epoch": 46416,
        "meta_bstar": -3.457952e-06,
        "meta_mean_motion_dot": -6.3e-07,
        "meta_mean_motion_ddot": 0,
        "tle_line1": "1 41240U 16002A   25353.89584622 -.00000063  00000+0 -34580-5 0  9997",
        "tle_line2": "2 41240  66.0398 142.7791 0007214 271.2454  88.7738 12.87626871464165"
      },
      "geometry": {
        "type": "Point",
        "coordinates": [
          -54.78650531082391,
          32.849372835884985
        ]
      }
    },
    {
      "type": "Feature",
      "properties": {
        "norad_id": 41335,
        "name": "SENTINEL-3A",
        "group": "resource",
        "lat": 0.12517419344925715,
        "lon": 59.20278763629486,
        "alt_km": 805.6046088686089,
        "timestamp": "2025-12-20T07:33:50.460961+00:00",
        "meta_object_name": "SENTINEL-3A",
        "meta_object_id": "2016-011A",
        "meta_epoch": "2025-12-19T21:27:52.916544",
        "meta_mean_motion": 14.26733263,
        "meta_eccentricity": 9.07e-05,
        "meta_inclination": 98.6305,
        "meta_ra_of_asc_node": 58.8069,
        "meta_arg_of_pericenter": 93.6014,
        "meta_mean_anomaly": 266.527,
        "meta_ephemeris_type": 0,
        "meta_classification_type": "U",
        "meta_norad_cat_id": 41335,
        "meta_element_set_no": 999,
        "meta_rev_at_epoch": 51249,
        "meta_bstar": 5.9500005e-05,
        "meta_mean_motion_dot": 1e-06,
        "meta_mean_motion_ddot": 0,
        "tle_line1": "1 41335U 16011A   25353.89436246  .00000100  00000+0  59500-4 0  9998",
        "tle_line2": "2 41335  98.6305  58.8069 0000907  93.6014 266.5270 14.26733263512490"
      },
      "geometry": {
        "type": "Point",
        "coordinates": [
          59.20278763629486,
          0.12517419344925715
        ]
      }
    },
    {
      "type": "Feature",
      "properties": {
        "norad_id": 41556,
        "name": "ZIYUAN 3-02 (ZY 3-02)",
        "group": "resource",
        "lat": 13.038684365137813,
        "lon": -109.91767869447695,
        "alt_km": 498.83432063665623,
        "timestamp": "2025-12-20T07:33:50.460972+00:00",
        "meta_object_name": "ZIYUAN 3-02 (ZY 3-02)",
        "meta_object_id": "2016-033A",
        "meta_epoch": "2025-12-19T22:56:19.632192",
        "meta_mean_motion": 15.21151619,
        "meta_eccentricity": 0.00110081,
        "meta_inclination": 97.4041,
        "meta_ra_of_asc_node": 68.0033,
        "meta_arg_of_pericenter": 219.0963,
        "meta_mean_anomaly": 140.9478,
        "meta_ephemeris_type": 0,
        "meta_classification_type": "U",
        "meta_norad_cat_id": 41556,
        "meta_element_set_no": 999,
        "meta_rev_at_epoch": 53073,
        "meta_bstar": 0.00023641888,
        "meta_mean_motion_dot": 5.204e-05,
        "meta_mean_motion_ddot": 0,
        "tle_line1": "1 41556U 16033A   25353.95578278  .00005204  00000+0  23642-3 0  9993",
        "tle_line2": "2 41556  97.4041  68.0033 0011008 219.0963 140.9478 15.21151619530731"
      },
      "geometry": {
        "type": "Point",
        "coordinates": [
          -109.91767869447695,
          13.038684365137813
        ]
      }
    }
  ]
}